STARLINK-3109_new
1 19143C 21082P   21326.12900611 -.00037564  00000-0 -31484-3 0  3262
2 19143  69.9994 292.9113 0003671 287.0395  32.3416 15.69771859    15
STARLINK-3109_old
1 29143C 21082P   21325.19296164 -.00006211  00000-0 -52042-4 0  3257
2 29143  69.9995 295.5424 0003776 286.0441 145.2877 15.69746806    16
